STARLINK-34713          
1 64906U 25157C   25216.58335648 -.01047046  00000+0 -46458-2 0  9995
2 64906  53.1543 289.7471 0000734  84.6496 300.1429 15.86162376  2610
STARLINK-34712          
1 64907U 25157D   25216.58335648 -.01051985  00000+0 -46647-2 0  9993
2 64907  53.1542 289.7418 0000781  66.4226 320.8881 15.86187094  2662
STARLINK-34702          
1 64908U 25157E   25216.58335648 -.01059395  00000+0 -46953-2 0  9997
2 64908  53.1543 289.7368 0000718  70.0648 319.6770 15.86215613  2669
STARLINK-34687          
1 64909U 25157F   25216.58335648 -.01068446  00000+0 -47344-2 0  9990
2 64909  53.1541 289.7313 0000753  70.2660 322.0656 15.86241798  2612
STARLINK-34642          
1 64910U 25157G   25216.58335648 -.01077443  00000+0 -47731-2 0  9999
2 64910  53.1542 289.7261 0000729  77.8846 316.9473 15.86269118  2669
STARLINK-34718          
1 64911U 25157H   25216.58335648 -.01085678  00000+0 -48082-2 0  9999
2 64911  53.1543 289.7208 0000732  71.6329 325.7959 15.86295184  2663
STARLINK-34711          
1 64912U 25157J   25216.58335648 -.01095070  00000+0 -48485-2 0  9994
2 64912  53.1541 289.7156 0000723  88.6885 311.2054 15.86323857  2664
STARLINK-34659          
1 64913U 25157K   25216.58335648 -.01099741  00000+0 -48659-2 0  9997
2 64913  53.1541 289.7102 0000701  76.5187 325.8954 15.86349284  2610
STARLINK-34571          
1 64914U 25157L   25216.58335648 -.01111508  00000+0 -49187-2 0  9991
2 64914  53.1541 289.7047 0000752  82.0321 323.0638 15.86374855  2618
STARLINK-34636          
1 64915U 25157M   25216.58335648 -.01125155  00000+0 -49798-2 0  9993
2 64915  53.1540 289.6996 0000724  73.3164 334.2015 15.86406197  2660
STARLINK-34695          
1 64916U 25157N   25216.58335648 -.01141205  00000+0 -50524-2 0  9997
2 64916  53.1541 289.6950 0000786  83.8725 325.8925 15.86439289  2663
STARLINK-34653          
1 64917U 25157P   25216.58335648 -.01189454  00000+0 -51751-2 0  9999
2 64917  53.1542 289.6893 0000797  86.1629 326.2316 15.86472097  2610
STARLINK-34611          
1 64918U 25157Q   25216.58335648 -.01218332  00000+0 -53076-2 0  9990
2 64918  53.1541 289.6841 0000742  80.3600 334.4804 15.86505803  2668
STARLINK-34599          
1 64919U 25157R   25216.58335648 -.01406564  00000+0 -50500-2 0  9996
2 64919  53.1546 289.4579 0000820  71.4182  92.7204 15.90705410  2662
STARLINK-34069          
1 64920U 25157S   25216.58335648 -.01240959  00000+0 -54140-2 0  9996
2 64920  53.1543 289.6782 0000736  69.7466 347.8762 15.86523350  2669
STARLINK-34699          
1 64921U 25157T   25216.58335648 -.01248021  00000+0 -54412-2 0  9997
2 64921  53.1541 289.6738 0000679  82.1623 337.5129 15.86551954  2663
STARLINK-34700          
1 64922U 25157U   25216.58335648 -.01257831  00000+0 -54851-2 0  9994
2 64922  53.1540 289.6684 0000724  87.6566 334.6261 15.86567674  2616
STARLINK-34643          
1 64923U 25157V   25216.58335648 -.01275516  00000+0 -55653-2 0  9996
2 64923  53.1543 289.6571 0000762  82.1080 345.5157 15.86592892  2668
STARLINK-34199          
1 64924U 25157W   25216.58335648 -.01265837  00000+0 -55209-2 0  9999
2 64924  53.1541 289.6629 0000738  73.7457 351.1188 15.86580909  2616
STARLINK-34579          
1 64925U 25157X   25216.58335648 -.01285947  00000+0 -56104-2 0  9999
2 64925  53.1540 289.6528 0000654  82.3843 347.3941 15.86617253  2668
STARLINK-34543          
1 64926U 25157Y   25216.58335648 -.01309814  00000+0 -57028-2 0  9996
2 64926  53.1549 289.6364 0000818  88.5146 349.9390 15.86706915  2617
STARLINK-34661          
1 64927U 25157Z   25216.58335648 -.01420375  00000+0 -51088-2 0  9993
2 64927  53.1546 289.4489 0000811  71.5219  96.8832 15.90698595  2390
STARLINK-34248          
1 64928U 25157AA  25216.58335648 -.01287992  00000+0 -56142-2 0  9996
2 64928  53.1540 289.6484 0000808  81.8098 350.0636 15.86638290  2665
STARLINK-34290          
1 64929U 25157AB  25216.58335648 -.01294120  00000+0 -56393-2 0  9996
2 64929  53.1539 289.6435 0000820  84.7405 349.4765 15.86656736  2668
STARLINK-34220          
1 64930U 25157AC  25216.58335648 -.01422191  00000+0 -51079-2 0  9995
2 64930  53.1545 289.4452 0000666  67.3726 102.8483 15.90731992  2554
STARLINK-34715          
1 64931U 25157AD  25216.58335648 -.01309155  00000+0 -57071-2 0  9998
2 64931  53.1539 289.6383 0000796  90.6246 346.0854 15.86680418  2660
STARLINK-34705          
1 64932U 25158A   25216.58335648 -.01443641  00000+0 -91881-2 0  9996
2 64932  97.5968  77.9854 0001572  70.6800 255.3020 15.79089645  2560
STARLINK-34737          
1 64933U 25158B   25216.58335648 -.01456875  00000+0 -92728-2 0  9991
2 64933  97.5966  77.9860 0001509  69.9147 257.9574 15.79115009  2567
STARLINK-34775          
1 64934U 25158C   25216.58335648 -.01454777  00000+0 -92738-2 0  9992
2 64934  97.5966  77.9870 0001528  70.9404 258.9155 15.79076604  2561
STARLINK-34726          
1 64935U 25158D   25216.58335648 -.01470325  00000+0 -93787-2 0  9995
2 64935  97.5965  77.9876 0001518  67.7254 264.0362 15.79093510  2500
STARLINK-34529          
1 64936U 25158E   25216.58335648 -.01485382  00000+0 -94999-2 0  9991
2 64936  97.5966  77.9889 0001426  71.2585 262.4780 15.79065725  2560
STARLINK-34743          
1 64937U 25158F   25216.58335648 -.01482136  00000+0 -94817-2 0  9995
2 64937  97.5965  77.9897 0001464  73.1217 262.5547 15.79052975  2569
STARLINK-34730          
1 64938U 25158G   25216.58335648 -.01470358  00000+0 -94051-2 0  9999
2 64938  97.5966  77.9905 0001505  72.6669 264.9561 15.79032335  2506
STARLINK-34714          
1 64939U 25158H   25216.58335648 -.01471916  00000+0 -94270-2 0  9994
2 64939  97.5965  77.9914 0001643  75.0635 264.5216 15.79005891  2341
STARLINK-34755          
1 64940U 25158J   25216.58335648 -.01453985  00000+0 -93097-2 0  9998
2 64940  97.5967  77.9922 0001465  70.2797 271.2579 15.78978694  2506
STARLINK-34740          
1 64941U 25158K   25216.58335648 -.01443194  00000+0 -92414-2 0  9992
2 64941  97.5965  77.9931 0001584  72.9059 270.5817 15.78954391  2502
STARLINK-34742          
1 64942U 25158L   25216.58335648 -.01431870  00000+0 -91715-2 0  9994
2 64942  97.5966  77.9940 0001549  74.3506 271.0931 15.78926460  2563
STARLINK-34719          
1 64943U 25158M   25216.58335648 -.01497871  00000+0 -96426-2 0  9992
2 64943  97.5968  77.9954 0001431  67.8900 279.4818 15.78946302  2569
STARLINK-34373          
1 64944U 25158N   25216.58335648 -.01452662  00000+0 -93257-2 0  9991
2 64944  97.5964  77.9956 0001559  67.0039 282.3067 15.78917128  2501
STARLINK-34758          
1 64945U 25158P   25216.58335648 -.01408679  00000+0 -90316-2 0  9994
2 64945  97.5965  77.9965 0001555  70.5609 280.7262 15.78860257  2500
STARLINK-34753          
1 64946U 25158Q   25216.58335648 -.01439025  00000+0 -92421-2 0  9993
2 64946  97.5965  77.9972 0001527  70.0034 283.1904 15.78881457  2500
STARLINK-34747          
1 64947U 25158R   25216.58335648 -.01374218  00000+0 -88020-2 0  9996
2 64947  97.5966  77.9984 0001516  79.1021 276.0693 15.78815778  2564
STARLINK-34630          
1 64948U 25158S   25216.58335648 -.01365612  00000+0 -87492-2 0  9997
2 64948  97.5964  77.9989 0001609  69.6644 287.4533 15.78792332  2509
STARLINK-34689          
1 64949U 25158T   25216.58335648 -.01320778  00000+0 -86124-2 0  9993
2 64949  97.5967  78.0002 0001603  78.3475 280.7083 15.78772592  2551
STARLINK-34586          
1 64950U 25158U   25216.58335648 -.01311700  00000+0 -85506-2 0  9993
2 64950  97.5966  78.0010 0001615  79.3980 281.5932 15.78757797  2503
STARLINK-34738          
1 64951U 25158V   25216.58335648 -.01284966  00000+0 -83676-2 0  9993
2 64951  97.5966  78.0018 0001677  73.8865 289.0629 15.78717404  2508
STARLINK-34744          
1 64952U 25158W   25216.58335648 -.01248373  00000+0 -81165-2 0  9997
2 64952  97.5966  78.0036 0001493  77.3684 289.4681 15.78669330  2509
STARLINK-34701          
1 64953U 25158X   25216.58335648 -.01281959  00000+0 -83485-2 0  9992
2 64953  97.5969  78.0031 0001662  77.2130 287.6671 15.78709302  2504
STARLINK-34761          
1 64954U 25158Y   25216.58335648 -.01206817  00000+0 -78318-2 0  9992
2 64954  97.5970  78.0048 0001379  70.8017 297.9988 15.78615773  2506
STARLINK-34732          
1 64955U 25158Z   25216.58335648 -.01172380  00000+0 -75967-2 0  9997
2 64955  97.5970  78.0058 0001411  84.1227 286.6371 15.78570500  2505
HULIANWANG DIGUI 5A     
1 64956U 25159A   25216.58193398  .00000136  00000+0  13963-3 0  9998
2 64956  86.4950  30.0132 0008929 193.7568 166.3349 13.68386104  1104
HULIANWANG DIGUI 5B     
1 64957U 25159B   25215.92332787  .00000154  00000+0  15997-3 0  9992
2 64957  86.4970  30.2561 0008382 194.4817 165.6103 13.68770702  1003
HULIANWANG DIGUI 5C     
1 64958U 25159C   25215.92235774  .00000151  00000+0  15578-3 0  9993
2 64958  86.4914  30.2453 0008059 190.2028 169.8969 13.68946263  1004
HULIANWANG DIGUI 5D     
1 64959U 25159D   25216.57973823  .00000119  00000+0  11870-3 0  9995
2 64959  86.4970  30.0155 0007590 182.1273 177.9856 13.68745650  1108
HULIANWANG DIGUI 5E     
1 64960U 25159E   25215.92118010  .00000070  00000+0  62145-4 0  9992
2 64960  86.4949  30.2508 0007376 182.7476 177.3644 13.69164755  1014
KUNPENG-03              
1 64962U 25160A   25216.59959263  .00017319  00000+0  78044-3 0  9991
2 64962  97.3994 291.1556 0010630 244.1552 115.8588 15.21060329   973
HULIANWANG DIGUI 6A     
1 65043U 25162A   25216.63088765  .00000044  00000+0  11905-3 0  9999
2 65043  50.0021 353.5461 0008167 283.8923  76.1073 14.05832918   748
HULIANWANG DIGUI 6B     
1 65044U 25162B   25216.63067830 -.00000046  00000+0  64548-4 0  9995
2 65044  50.0030 353.5460 0006922 277.9560  82.0559 14.05895376   759
HULIANWANG DIGUI 6C     
1 65045U 25162C   25216.63031732 -.00000004  00000+0  89723-4 0  9994
2 65045  49.9994 353.5403 0007387 285.7184  74.2906 14.05990219   759
HULIANWANG DIGUI 6D     
1 65046U 25162D   25216.63008232 -.00000007  00000+0  88284-4 0  9998
2 65046  50.0012 353.5413 0006199 283.5115  76.5099 14.06044188   759
